NORAD_CAT_ID,OBJECT_NAME,OBJECT_TYPE,EPOCH,MEAN_MOTION,ECCENTRICITY,INCLINATION,RA_OF_ASC_NODE,ARG_OF_PERICENTER,MEAN_ANOMALY,BSTAR,MEAN_MOTION_DOT,MEAN_MOTION_DDOT,TLE_LINE0,TLE_LINE1,TLE_LINE2,SEMIMAJOR_AXIS,PERIOD,APOGEE,PERIGEE,DECAYED
53034.0,STARLINK-4151,PAYLOAD,2023-08-07 09:11:18,15.08834355,9.21e-05,53.2177,357.7679,79.9405,280.1692,-2.4601e-05,-6.79e-06,0.0,0 STARLINK-4151,1 53034U 22076BA  23219.38285630 -.00000679  00000-0 -24601-4 0  9995,2 53034  53.2177 357.7679 0000921  79.9405 280.1692 15.08834355 60873,6917.898,95.438,540.4,539.126,0.0
53034.0,STARLINK-4151,PAYLOAD,2023-08-07 15:32:51,15.08845283,8.9e-05,53.2175,356.579,85.8552,274.2542,0.00018896,2.721e-05,0.0,0 STARLINK-4151,1 53034U 22076BA  23219.64781308  .00002721  00000-0  18896-3 0  9993,2 53034  53.2175 356.5790 0000890  85.8552 274.2542 15.08845283 60911,6917.864,95.437,540.345,539.114,0.0
53034.0,STARLINK-4151,PAYLOAD,2023-08-09 08:52:51,15.08855676,0.0001651,53.2195,348.8485,122.2895,237.8257,0.0001363,1.883e-05,0.0,0 STARLINK-4151,1 53034U 22076BA  23221.37004584  .00001883  00000-0  13630-3 0  9999,2 53034  53.2195 348.8485 0001651 122.2895 237.8257 15.08855676 61174,6917.832,95.437,540.84,538.555,0.0
53034.0,STARLINK-4151,PAYLOAD,2023-08-09 15:14:24,15.0884794,7.99e-05,53.2168,347.6583,104.9483,255.1598,5.0758e-05,5.2e-06,0.0,0 STARLINK-4151,1 53034U 22076BA  23221.63500823  .00000520  00000-0  50758-4 0  9995,2 53034  53.2168 347.6583 0000799 104.9483 255.1598 15.08847940 61213,6917.856,95.437,540.274,539.168,0.0
53034.0,STARLINK-4151,PAYLOAD,2023-08-10 18:15:57,15.08853542,8.67e-05,53.2174,342.6028,103.949,256.1599,9.9127e-05,1.291e-05,0.0,0 STARLINK-4151,1 53034U 22076BA  23222.76108122  .00001291  00000-0  99127-4 0  9995,2 53034  53.2174 342.6028 0000867 103.9490 256.1599 15.08853542 61387,6917.839,95.437,540.304,539.104,0.0
53034.0,STARLINK-4151,PAYLOAD,2023-08-11 00:37:30,15.08842114,7.33e-05,53.2174,341.4116,96.3656,263.7419,6.4819e-05,7.44e-06,0.0,0 STARLINK-4151,1 53034U 22076BA  23223.02604634  .00000744  00000-0  64819-4 0  9996,2 53034  53.2174 341.4116 0000733  96.3656 263.7419 15.08842114 61426,6917.874,95.437,540.246,539.232,0.0
53034.0,STARLINK-4151,PAYLOAD,2023-08-12 08:25:13,15.08837947,0.000129,53.2173,335.4662,104.178,255.9356,-2.3614e-05,-6.64e-06,0.0,0 STARLINK-4151,1 53034U 22076BA  23224.35084971 -.00000664  00000-0 -23614-4 0  9990,2 53034  53.2173 335.4662 0001290 104.1780 255.9356 15.08837947 61622,6917.887,95.438,540.644,538.859,0.0
53034.0,STARLINK-4151,PAYLOAD,2023-08-13 13:02:09,15.08843988,7.82e-05,53.2168,330.1143,90.5013,269.6069,0.00016942,2.41e-05,0.0,0 STARLINK-4151,1 53034U 22076BA  23225.54316984  .00002410  00000-0  16942-3 0  9998,2 53034  53.2168 330.1143 0000782  90.5013 269.6069 15.08843988 61809,6917.868,95.437,540.274,539.192,0.0
53034.0,STARLINK-4151,PAYLOAD,2023-08-14 11:17:34,15.08838839,7.49e-05,53.2169,325.9514,87.7735,272.3342,0.00012478,1.699e-05,0.0,0 STARLINK-4151,1 53034U 22076BA  23226.47053332  .00001699  00000-0  12478-3 0  9994,2 53034  53.2169 325.9514 0000749  87.7735 272.3342 15.08838839 61945,6917.884,95.438,540.267,539.231,0.0
53034.0,STARLINK-4151,PAYLOAD,2023-08-15 15:54:30,15.08848762,7.07e-05,53.2181,320.5964,101.8031,258.304,0.00010099,1.32e-05,0.0,0 STARLINK-4151,1 53034U 22076BA  23227.66284857  .00001320  00000-0  10099-3 0  9992,2 53034  53.2181 320.5964 0000707 101.8031 258.3040 15.08848762 62126,6917.854,95.437,540.208,539.23,0.0
53034.0,STARLINK-4151,PAYLOAD,2023-08-16 10:59:08,15.08838172,8.4e-05,53.2172,317.0303,85.7196,274.3892,0.00010031,1.309e-05,0.0,0 STARLINK-4151,1 53034U 22076BA  23228.45773601  .00001309  00000-0  10031-3 0  9993,2 53034  53.2172 317.0303 0000840  85.7196 274.3892 15.08838172 62244,6917.886,95.438,540.332,539.17,0.0
53034.0,STARLINK-4151,PAYLOAD,2023-08-17 15:36:04,15.08848326,9.92e-05,53.2169,311.6758,93.9461,266.1645,0.00019769,2.861e-05,0.0,0 STARLINK-4151,1 53034U 22076BA  23229.65005013  .00002861  00000-0  19769-3 0  9992,2 53034  53.2169 311.6758 0000992  93.9461 266.1645 15.08848326 62425,6917.855,95.437,540.406,539.034,0.0
53034.0,STARLINK-4151,PAYLOAD,2023-08-18 10:40:42,15.0883896,0.0001009,53.2164,308.1088,103.9086,256.2018,7.7578e-05,9.47e-06,0.0,0 STARLINK-4151,1 53034U 22076BA  23230.44493561  .00000947  00000-0  77578-4 0  9996,2 53034  53.2164 308.1088 0001009 103.9086 256.2018 15.08838960 62542,6917.884,95.438,540.447,539.051,0.0
53034.0,STARLINK-4151,PAYLOAD,2023-08-19 12:06:52,15.08843925,0.0001034,53.2175,303.3531,84.3872,275.7238,3.0902e-06,-2.39e-06,0.0,0 STARLINK-4151,1 53034U 22076BA  23231.50477354 -.00000239  00000-0  30902-5 0  9992,2 53034  53.2175 303.3531 0001034  84.3872 275.7238 15.08843925 62702,6917.868,95.437,540.449,539.018,0.0
53034.0,STARLINK-4151,PAYLOAD,2023-08-19 13:42:16,15.08817912,0.0001262,53.2178,303.0565,80.2359,279.8776,0.00091533,0.00014301,0.0,0 STARLINK-4151,1 53034U 22076BA  23231.57102951  .00014301  00000-0  91533-3 0  9996,2 53034  53.2178 303.0565 0001262  80.2359 279.8776 15.08817912 62717,6917.948,95.439,540.686,538.94,0.0
53034.0,STARLINK-4151,PAYLOAD,2023-08-19 23:14:34,15.08833854,9.5e-05,53.2169,301.2719,84.2737,275.8363,9.9203e-05,1.291e-05,0.0,0 STARLINK-4151,1 53034U 22076BA  23231.96845975  .00001291  00000-0  99203-4 0  9996,2 53034  53.2169 301.2719 0000950  84.2737 275.8363 15.08833854 62772,6917.899,95.438,540.421,539.107,0.0
53034.0,STARLINK-4151,PAYLOAD,2023-08-21 03:51:31,15.08841244,0.0001098,53.2165,295.92,87.1088,273.003,0.0001312,1.801e-05,0.0,0 STARLINK-4151,1 53034U 22076BA  23233.16077890  .00001801  00000-0  13120-3 0  9993,2 53034  53.2165 295.9200 0001098  87.1088 273.0030 15.08841244 62950,6917.877,95.437,540.501,538.982,0.0
53034.0,STARLINK-4151,PAYLOAD,2023-08-22 03:42:19,15.08830667,0.0001122,53.2164,291.4588,81.4543,278.6576,0.0003582,5.416e-05,0.0,0 STARLINK-4151,1 53034U 22076BA  23234.15438682  .00005416  00000-0  35820-3 0  9990,2 53034  53.2164 291.4588 0001122  81.4543 278.6576 15.08830667 63101,6917.909,95.438,540.55,538.998,0.0
53034.0,STARLINK-4151,PAYLOAD,2023-08-23 08:19:14,15.088456,0.0001125,53.2167,286.1058,80.1067,280.0053,0.00011265,1.506e-05,0.0,0 STARLINK-4151,1 53034U 22076BA  23235.34669860  .00001506  00000-0  11265-3 0  9999,2 53034  53.2167 286.1058 0001125  80.1067 280.0053 15.08845600 63286,6917.863,95.437,540.507,538.95,0.0
53034.0,STARLINK-4151,PAYLOAD,2023-08-24 08:10:02,15.08838907,0.0001159,53.2169,281.645,96.4436,263.6688,6.3103e-05,7.17e-06,0.0,0 STARLINK-4151,1 53034U 22076BA  23236.34030218  .00000717  00000-0  63103-4 0  9991,2 53034  53.2169 281.6450 0001159  96.4436 263.6688 15.08838907 62979,6917.884,95.438,540.551,538.947,0.0
53034.0,STARLINK-4151,PAYLOAD,2023-08-25 09:36:12,15.08842104,0.0001249,53.2161,276.8862,98.742,261.3713,5.0578e-05,5.17e-06,0.0,0 STARLINK-4151,1 53034U 22076BA  23237.40013975  .00000517  00000-0  50578-4 0  9990,2 53034  53.2161 276.8862 0001249  98.7420 261.3713 15.08842104 63599,6917.874,95.437,540.603,538.875,0.0
53034.0,STARLINK-4151,PAYLOAD,2023-08-26 09:26:59,15.08837859,0.0001288,53.2162,272.4257,99.3939,260.7199,7.3064e-05,8.75e-06,0.0,0 STARLINK-4151,1 53034U 22076BA  23238.39374353  .00000875  00000-0  73064-4 0  9991,2 53034  53.2162 272.4257 0001288  99.3939 260.7199 15.08837859 63744,6917.887,95.438,540.643,538.861,0.0
53034.0,STARLINK-4151,PAYLOAD,2023-08-27 02:56:14,15.08837309,0.0001376,53.2169,269.1549,98.6984,261.4164,6.1551e-05,6.92e-06,0.0,0 STARLINK-4151,1 53034U 22076BA  23239.12238582  .00000692  00000-0  61551-4 0  9991,2 53034  53.2169 269.1549 0001376  98.6984 261.4164 15.08837309 63399,6917.889,95.438,540.706,538.802,0.0
53034.0,STARLINK-4151,PAYLOAD,2023-08-28 02:47:01,15.08835583,0.0001305,53.2168,264.694,95.9493,264.1648,4.0913e-05,3.63e-06,0.0,0 STARLINK-4151,1 53034U 22076BA  23240.11599036  .00000363  00000-0  40913-4 0  9990,2 53034  53.2168 264.6940 0001305  95.9493 264.1648 15.08835583 64008,6917.894,95.438,540.662,538.856,0.0
53034.0,STARLINK-4151,PAYLOAD,2023-08-28 18:40:52,15.08839208,0.0001355,53.2168,261.7199,89.4088,270.706,7.1457e-05,8.49e-06,0.0,0 STARLINK-4151,1 53034U 22076BA  23240.77838878  .00000849  00000-0  71457-4 0  9998,2 53034  53.2168 261.7199 0001355  89.4088 270.7060 15.08839208 63643,6917.883,95.438,540.685,538.81,0.0
53034.0,STARLINK-4151,PAYLOAD,2023-08-29 08:59:20,15.0884425,0.0001323,53.2162,259.0434,90.0617,270.0527,0.00013721,1.897e-05,0.0,0 STARLINK-4151,1 53034U 22076BA  23241.37454417  .00001897  00000-0  13721-3 0  9991,2 53034  53.2162 259.0434 0001323  90.0617 270.0527 15.08844250 64195,6917.867,95.437,540.648,538.817,0.0
53034.0,STARLINK-4151,PAYLOAD,2023-08-30 00:53:12,15.08837888,0.0001352,53.2162,256.0701,90.0683,270.0464,6.3743e-05,7.27e-06,0.0,0 STARLINK-4151,1 53034U 22076BA  23242.03695088  .00000727  00000-0  63743-4 0  9997,2 53034  53.2162 256.0701 0001352  90.0683 270.0464 15.08837888 64294,6917.887,95.438,540.687,538.817,0.0
53034.0,STARLINK-4151,PAYLOAD,2023-08-30 18:22:26,15.08839868,0.0001321,53.2166,252.7996,107.2826,252.8311,6.0113e-05,6.69e-06,0.0,0 STARLINK-4151,1 53034U 22076BA  23242.76558982  .00000669  00000-0  60113-4 0  9991,2 53034  53.2166 252.7996 0001321 107.2826 252.8311 15.08839868 63943,6917.881,95.438,540.66,538.832,0.0
53034.0,STARLINK-4151,PAYLOAD,2023-08-31 00:43:59,15.08841792,0.0001288,53.2168,251.6098,86.7551,273.3588,3.2806e-05,2.34e-06,0.0,0 STARLINK-4151,1 53034U 22076BA  23243.03054976  .00000234  00000-0  32806-4 0  9992,2 53034  53.2168 251.6098 0001288  86.7551 273.3588 15.08841792 63981,6917.875,95.437,540.631,538.849,0.0
53034.0,STARLINK-4151,PAYLOAD,2023-09-01 00:34:47,15.08812456,0.0001728,53.2173,247.1563,18.3856,341.7198,0.00027613,4.106e-05,0.0,0 STARLINK-4151,1 53034U 22076BA  23244.02415759  .00004106  00000-0  27613-3 0  9993,2 53034  53.2173 247.1563 0001728  18.3856 341.7198 15.08812456 64592,6917.965,95.439,541.025,538.634,0.0
